{
  "type": "FeatureCollection",
  "generator": "overpass-turbo",
  "copyright": "The data included in this document is from www.openstreetmap.org. The data is made available under ODbL.",
  "timestamp": "2026-07-03T14:00:45Z",
  "features": [
    {
      "type": "Feature",
      "properties": {
        "@id": "relation/9676375",
        "admin_level": "5",
        "boundary": "administrative",
        "name": "Kota Kediri",
        "name:ar": "كيديري",
        "name:en": "Kediri City",
        "official_name": "Kota Kediri",
        "type": "boundary",
        "wikidata": "Q11443",
        "wikipedia": "id:Kota Kediri"
      },
      "geometry": {
        "type": "Polygon",
        "coordinates": [
          [
            [
              112.0147778,
              -7.8554823
            ],
            [
              112.014703,
              -7.8556946
            ],
            [
              112.0153424,
              -7.855963
            ],
            [
              112.0161285,
              -7.8563007
            ],
            [
              112.0169151,
              -7.8566581
            ],
            [
              112.0176066,
              -7.856971
            ],
            [
              112.0177448,
              -7.8565925
            ],
            [
              112.0197857,
              -7.8573818
            ],
            [
              112.0197369,
              -7.8575832
            ],
            [
              112.0248868,
              -7.8591662
            ],
            [
              112.0242545,
              -7.8609132
            ],
            [
              112.0237488,
              -7.8622745
            ],
            [
              112.0260737,
              -7.8630209
            ],
            [
              112.0258888,
              -7.8637988
            ],
            [
              112.0264603,
              -7.8640353
            ],
            [
              112.0265677,
              -7.864333
            ],
            [
              112.0267483,
              -7.8646145
            ],
            [
              112.0269456,
              -7.864772
            ],
            [
              112.0273335,
              -7.8648795
            ],
            [
              112.0277086,
              -7.8650215
            ],
            [
              112.0278763,
              -7.8650471
            ],
            [
              112.0281321,
              -7.8651225
            ],
            [
              112.0282346,
              -7.8652651
            ],
            [
              112.0283524,
              -7.8654902
            ],
            [
              112.0285441,
              -7.8658228
            ],
            [
              112.0286861,
              -7.8659876
            ],
            [
              112.0288523,
              -7.8661724
            ],
            [
              112.0289742,
              -7.866261
            ],
            [
              112.0293431,
              -7.8663531
            ],
            [
              112.0298329,
              -7.8665594
            ],
            [
              112.0301533,
              -7.8667621
            ],
            [
              112.0302581,
              -7.8668295
            ],
            [
              112.0304135,
              -7.8671113
            ],
            [
              112.030579,
              -7.867117
            ],
            [
              112.030596,
              -7.8673776
            ],
            [
              112.0312603,
              -7.8672986
            ],
            [
              112.0315724,
              -7.8672189
            ],
            [
              112.0318482,
              -7.8672423
            ],
            [
              112.0320161,
              -7.8672931
            ],
            [
              112.0321954,
              -7.867425
            ],
            [
              112.0324491,
              -7.8674723
            ],
            [
              112.032788,
              -7.8673703
            ],
            [
              112.0329378,
              -7.8673528
            ],
            [
              112.033038,
              -7.8674232
            ],
            [
              112.0332034,
              -7.8675003
            ],
            [
              112.0332878,
              -7.8674811
            ],
            [
              112.0333962,
              -7.8674274
            ],
            [
              112.0337778,
              -7.867456
            ],
            [
              112.0340006,
              -7.8675345
            ],
            [
              112.0342838,
              -7.8675372
            ],
            [
              112.0344737,
              -7.8675675
            ],
            [
              112.0346813,
              -7.8676862
            ],
            [
              112.0350445,
              -7.8678245
            ],
            [
              112.0353272,
              -7.8678477
            ],
            [
              112.0355366,
              -7.8678686
            ],
            [
              112.0356338,
              -7.8679381
            ],
            [
              112.0356799,
              -7.8680524
            ],
            [
              112.0360031,
              -7.8682021
            ],
            [
              112.0362742,
              -7.8681709
            ],
            [
              112.0365849,
              -7.868185
            ],
            [
              112.036771,
              -7.8681136
            ],
            [
              112.0370075,
              -7.868101
            ],
            [
              112.0372817,
              -7.8682188
            ],
            [
              112.037445,
              -7.86836
            ],
            [
              112.0375442,
              -7.8684448
            ],
            [
              112.0377329,
              -7.8686046
            ],
            [
              112.0379289,
              -7.8689051
            ],
            [
              112.0381416,
              -7.869067
            ],
            [
              112.0382862,
              -7.8691145
            ],
            [
              112.0383909,
              -7.869212
            ],
            [
              112.0384772,
              -7.8694681
            ],
            [
              112.0385797,
              -7.8696076
            ],
            [
              112.038564,
              -7.869986
            ],
            [
              112.0384903,
              -7.8701781
            ],
            [
              112.038536,
              -7.8703074
            ],
            [
              112.0387115,
              -7.8704857
            ],
            [
              112.0388641,
              -7.8705739
            ],
            [
              112.0390052,
              -7.8705193
            ],
            [
              112.0390153,
              -7.8704677
            ],
            [
              112.0389916,
              -7.8704255
            ],
            [
              112.0389865,
              -7.8703897
            ],
            [
              112.0390318,
              -7.8703447
            ],
            [
              112.0391368,
              -7.8703086
            ],
            [
              112.0391831,
              -7.8702442
            ],
            [
              112.0392632,
              -7.8702193
            ],
            [
              112.0393759,
              -7.8702773
            ],
            [
              112.0394405,
              -7.8703213
            ],
            [
              112.0394825,
              -7.870291
            ],
            [
              112.039535,
              -7.8702297
            ],
            [
              112.0395838,
              -7.8701995
            ],
            [
              112.039667,
              -7.8702446
            ],
            [
              112.0397655,
              -7.8703369
            ],
            [
              112.0398244,
              -7.8703337
            ],
            [
              112.0400566,
              -7.8706467
            ],
            [
              112.0403306,
              -7.870899
            ],
            [
              112.0406457,
              -7.8709249
            ],
            [
              112.040959,
              -7.8704386
            ],
            [
              112.0413013,
              -7.8701844
            ],
            [
              112.0416917,
              -7.8700926
            ],
            [
              112.0420517,
              -7.8701038
            ],
            [
              112.0424993,
              -7.8701941
            ],
            [
              112.0428383,
              -7.8704681
            ],
            [
              112.0432911,
              -7.8710475
            ],
            [
              112.0437223,
              -7.8713264
            ],
            [
              112.0442319,
              -7.8714432
            ],
            [
              112.0445617,
              -7.8712063
            ],
            [
              112.0451429,
              -7.8715464
            ],
            [
              112.0451935,
              -7.8716142
            ],
            [
              112.0451933,
              -7.8717102
            ],
            [
              112.0452064,
              -7.8718085
            ],
            [
              112.0453083,
              -7.8719468
            ],
            [
              112.0453554,
              -7.8720451
            ],
            [
              112.0453838,
              -7.872378
            ],
            [
              112.0454122,
              -7.8725525
            ],
            [
              112.0454724,
              -7.8726663
            ],
            [
              112.0477066,
              -7.8727287
            ],
            [
              112.0483398,
              -7.8726443
            ],
            [
              112.0487747,
              -7.8724789
            ],
            [
              112.0489349,
              -7.8720225
            ],
            [
              112.0489807,
              -7.8712038
            ],
            [
              112.0490646,
              -7.8709244
            ],
            [
              112.0491561,
              -7.8705977
            ],
            [
              112.049179,
              -7.8705219
            ],
            [
              112.0491943,
              -7.8704766
            ],
            [
              112.0493088,
              -7.8699636
            ],
            [
              112.0493545,
              -7.8697256
            ],
            [
              112.0494003,
              -7.8696012
            ],
            [
              112.0495453,
              -7.8691343
            ],
            [
              112.0495758,
              -7.8690657
            ],
            [
              112.0497284,
              -7.8686027
            ],
            [
              112.0497589,
              -7.8685225
            ],
            [
              112.0499954,
              -7.8678035
            ],
            [
              112.0501175,
              -7.8675379
            ],
            [
              112.0504608,
              -7.8666543
            ],
            [
              112.05145,
              -7.8652294
            ],
            [
              112.0526023,
              -7.865618
            ],
            [
              112.0527828,
              -7.8652045
            ],
            [
              112.0532525,
              -7.8638148
            ],
            [
              112.0540901,
              -7.8641687
            ],
            [
              112.0554922,
              -7.8648319
            ],
            [
              112.0562039,
              -7.8650971
            ],
            [
              112.0565831,
              -7.8652039
            ],
            [
              112.0567597,
              -7.8648842
            ],
            [
              112.0575229,
              -7.8651492
            ],
            [
              112.0578002,
              -7.8644134
            ],
            [
              112.0596203,
              -7.8648823
            ],
            [
              112.0598914,
              -7.8647576
            ],
            [
              112.0602694,
              -7.8648717
            ],
            [
              112.0608119,
              -7.8653812
            ],
            [
              112.0613214,
              -7.8659905
            ],
            [
              112.061741,
              -7.866261
            ],
            [
              112.0622482,
              -7.8664006
            ],
            [
              112.0631332,
              -7.8667768
            ],
            [
              112.0640924,
              -7.8672792
            ],
            [
              112.0644767,
              -7.8674111
            ],
            [
              112.0652547,
              -7.8676905
            ],
            [
              112.0664816,
              -7.8680568
            ],
            [
              112.0666518,
              -7.8681304
            ],
            [
              112.0668733,
              -7.8692973
            ],
            [
              112.0670521,
              -7.8703408
            ],
            [
              112.0675805,
              -7.871659
            ],
            [
              112.0682452,
              -7.8726213
            ],
            [
              112.0685014,
              -7.872826
            ],
            [
              112.0683843,
              -7.8732353
            ],
            [
              112.0687561,
              -7.873732
            ],
            [
              112.0690171,
              -7.874215
            ],
            [
              112.0696499,
              -7.8744891
            ],
            [
              112.0693967,
              -7.8750146
            ],
            [
              112.0716297,
              -7.8763162
            ],
            [
              112.072135,
              -7.8750546
            ],
            [
              112.0735593,
              -7.8755498
            ],
            [
              112.0743384,
              -7.8758827
            ],
            [
              112.0749736,
              -7.8741226
            ],
            [
              112.0749682,
              -7.8739207
            ],
            [
              112.0745954,
              -7.873655
            ],
            [
              112.0743003,
              -7.8734982
            ],
            [
              112.0739516,
              -7.8732458
            ],
            [
              112.0736807,
              -7.8730997
            ],
            [
              112.0733267,
              -7.8730572
            ],
            [
              112.0732328,
              -7.8729828
            ],
            [
              112.0730531,
              -7.8727941
            ],
            [
              112.0728439,
              -7.8727543
            ],
            [
              112.0723879,
              -7.872664
            ],
            [
              112.072117,
              -7.8725922
            ],
            [
              112.0719936,
              -7.8723637
            ],
            [
              112.0719024,
              -7.8720874
            ],
            [
              112.071948,
              -7.8719678
            ],
            [
              112.0719587,
              -7.8716862
            ],
            [
              112.0719266,
              -7.8714205
            ],
            [
              112.07183,
              -7.8712531
            ],
            [
              112.0717254,
              -7.8709715
            ],
            [
              112.0716932,
              -7.8707483
            ],
            [
              112.071661,
              -7.8705517
            ],
            [
              112.0716127,
              -7.8702515
            ],
            [
              112.0715001,
              -7.8699406
            ],
            [
              112.0715403,
              -7.8696722
            ],
            [
              112.0715457,
              -7.8695978
            ],
            [
              112.0715873,
              -7.8695222
            ],
            [
              112.0715819,
              -7.8693256
            ],
            [
              112.07148,
              -7.8691555
            ],
            [
              112.0713137,
              -7.8685285
            ],
            [
              112.0710294,
              -7.8674763
            ],
            [
              112.0707987,
              -7.8667855
            ],
            [
              112.0708685,
              -7.8664507
            ],
            [
              112.0710271,
              -7.8659822
            ],
            [
              112.070944,
              -7.8656023
            ],
            [
              112.0706248,
              -7.8652144
            ],
            [
              112.0705202,
              -7.8651346
            ],
            [
              112.07033,
              -7.8650872
            ],
            [
              112.0702331,
              -7.865079
            ],
            [
              112.0707254,
              -7.8634213
            ],
            [
              112.0710197,
              -7.8624828
            ],
            [
              112.0713476,
              -7.8615975
            ],
            [
              112.0706624,
              -7.8611812
            ],
            [
              112.0702899,
              -7.8608446
            ],
            [
              112.0699346,
              -7.8600661
            ],
            [
              112.0696865,
              -7.8596892
            ],
            [
              112.0695003,
              -7.8594547
            ],
            [
              112.0686562,
              -7.8592002
            ],
            [
              112.0676423,
              -7.8588099
            ],
            [
              112.066715,
              -7.8580826
            ],
            [
              112.0664304,
              -7.8576198
            ],
            [
              112.0663477,
              -7.8569206
            ],
            [
              112.066444,
              -7.8564892
            ],
            [
              112.0665912,
              -7.8561658
            ],
            [
              112.0664913,
              -7.8560354
            ],
            [
              112.0664101,
              -7.8557337
            ],
            [
              112.0662408,
              -7.8554007
            ],
            [
              112.0661239,
              -7.8549334
            ],
            [
              112.0658347,
              -7.8545826
            ],
            [
              112.0659443,
              -7.8541654
            ],
            [
              112.0660995,
              -7.8536659
            ],
            [
              112.0669708,
              -7.8541245
            ],
            [
              112.0674405,
              -7.8543874
            ],
            [
              112.0676269,
              -7.854073
            ],
            [
              112.0677948,
              -7.8537687
            ],
            [
              112.0679626,
              -7.8534512
            ],
            [
              112.0680542,
              -7.8532199
            ],
            [
              112.0682602,
              -7.8527302
            ],
            [
              112.0682831,
              -7.8526725
            ],
            [
              112.0683136,
              -7.8526258
            ],
            [
              112.0685424,
              -7.8521794
            ],
            [
              112.0686035,
              -7.8520254
            ],
            [
              112.0686645,
              -7.8518805
            ],
            [
              112.0689163,
              -7.8514761
            ],
            [
              112.0690536,
              -7.8512558
            ],
            [
              112.0681706,
              -7.8509079
            ],
            [
              112.0674291,
              -7.8503532
            ],
            [
              112.0679492,
              -7.8491842
            ],
            [
              112.0679397,
              -7.8491768
            ],
            [
              112.068161,
              -7.8483099
            ],
            [
              112.0681839,
              -7.848288
            ],
            [
              112.0678863,
              -7.8476562
            ],
            [
              112.0682907,
              -7.8466262
            ],
            [
              112.0686721,
              -7.8455967
            ],
            [
              112.0691855,
              -7.8439577
            ],
            [
              112.0717651,
              -7.8450242
            ],
            [
              112.0721777,
              -7.8452295
            ],
            [
              112.0722686,
              -7.8455564
            ],
            [
              112.0723821,
              -7.8459024
            ],
            [
              112.0723371,
              -7.8463373
            ],
            [
              112.0721612,
              -7.8468298
            ],
            [
              112.0723973,
              -7.8473251
            ],
            [
              112.0736032,
              -7.8479793
            ],
            [
              112.0748584,
              -7.8485424
            ],
            [
              112.0765423,
              -7.8493102
            ],
            [
              112.0769709,
              -7.8495035
            ],
            [
              112.0775767,
              -7.8495934
            ],
            [
              112.0777041,
              -7.8496138
            ],
            [
              112.0784902,
              -7.8475716
            ],
            [
              112.0789449,
              -7.8465378
            ],
            [
              112.0799268,
              -7.8468135
            ],
            [
              112.0801315,
              -7.8462934
            ],
            [
              112.0801391,
              -7.8462128
            ],
            [
              112.0802383,
              -7.8459214
            ],
            [
              112.0803146,
              -7.8455876
            ],
            [
              112.0802917,
              -7.8454718
            ],
            [
              112.0804367,
              -7.8448485
            ],
            [
              112.0813936,
              -7.845017
            ],
            [
              112.081426,
              -7.8446635
            ],
            [
              112.081983,
              -7.844806
            ],
            [
              112.0823664,
              -7.8433829
            ],
            [
              112.0824328,
              -7.8432533
            ],
            [
              112.0821326,
              -7.8430476
            ],
            [
              112.0816873,
              -7.8428244
            ],
            [
              112.0811142,
              -7.8427016
            ],
            [
              112.0805882,
              -7.8426154
            ],
            [
              112.0801544,
              -7.8427423
            ],
            [
              112.079956,
              -7.84277
            ],
            [
              112.0799102,
              -7.8427919
            ],
            [
              112.0797653,
              -7.8427886
            ],
            [
              112.0794677,
              -7.842699
            ],
            [
              112.0789032,
              -7.8425397
            ],
            [
              112.0786285,
              -7.8425283
            ],
            [
              112.0785446,
              -7.8425707
            ],
            [
              112.0784378,
              -7.8426847
            ],
            [
              112.0781173,
              -7.8432039
            ],
            [
              112.0779495,
              -7.8434595
            ],
            [
              112.0777893,
              -7.843459
            ],
            [
              112.0776596,
              -7.8433794
            ],
            [
              112.0770111,
              -7.8429212
            ],
            [
              112.0766601,
              -7.8427986
            ],
            [
              112.0758514,
              -7.8426103
            ],
            [
              112.075531,
              -7.8424987
            ],
            [
              112.0753707,
              -7.8423623
            ],
            [
              112.075325,
              -7.8422417
            ],
            [
              112.0753174,
              -7.8420261
            ],
            [
              112.0752639,
              -7.8418092
            ],
            [
              112.075119,
              -7.8416251
            ],
            [
              112.0748367,
              -7.8413724
            ],
            [
              112.0746078,
              -7.8412623
            ],
            [
              112.0740204,
              -7.8411249
            ],
            [
              112.0736999,
              -7.8410448
            ],
            [
              112.0734997,
              -7.8409157
            ],
            [
              112.0735158,
              -7.8408791
            ],
            [
              112.0735702,
              -7.8408264
            ],
            [
              112.0736236,
              -7.8406915
            ],
            [
              112.0739975,
              -7.8398327
            ],
            [
              112.0741805,
              -7.8394369
            ],
            [
              112.0741958,
              -7.839363
            ],
            [
              112.074295,
              -7.8391241
            ],
            [
              112.0743255,
              -7.8390521
            ],
            [
              112.0748748,
              -7.8377732
            ],
            [
              112.0755691,
              -7.835792
            ],
            [
              112.0761184,
              -7.8341087
            ],
            [
              112.0765076,
              -7.8330921
            ],
            [
              112.076538,
              -7.8329372
            ],
            [
              112.076683,
              -7.8326925
            ],
            [
              112.0768585,
              -7.8323659
            ],
            [
              112.0769042,
              -7.8322805
            ],
            [
              112.0769348,
              -7.8322109
            ],
            [
              112.0766601,
              -7.8321861
            ],
            [
              112.0764541,
              -7.8321203
            ],
            [
              112.0758939,
              -7.8318576
            ],
            [
              112.0755386,
              -7.8319139
            ],
            [
              112.075325,
              -7.8319601
            ],
            [
              112.0751114,
              -7.8320841
            ],
            [
              112.0747451,
              -7.8323373
            ],
            [
              112.0745315,
              -7.8323249
            ],
            [
              112.0742721,
              -7.8321933
            ],
            [
              112.0735626,
              -7.8317245
            ],
            [
              112.0730743,
              -7.831438
            ],
            [
              112.0726699,
              -7.8311848
            ],
            [
              112.0716934,
              -7.8305372
            ],
            [
              112.0716095,
              -7.8303823
            ],
            [
              112.0713729,
              -7.8299035
            ],
            [
              112.0711517,
              -7.8296904
            ],
            [
              112.0700226,
              -7.82909
            ],
            [
              112.0698166,
              -7.8294391
            ],
            [
              112.0694656,
              -7.8301891
            ],
            [
              112.0690689,
              -7.8310985
            ],
            [
              112.0682373,
              -7.8346724
            ],
            [
              112.0679931,
              -7.8354448
            ],
            [
              112.0676803,
              -7.8364629
            ],
            [
              112.0669861,
              -7.8360042
            ],
            [
              112.0666809,
              -7.8357324
            ],
            [
              112.066391,
              -7.8355059
            ],
            [
              112.0660934,
              -7.8353929
            ],
            [
              112.0648803,
              -7.8350166
            ],
            [
              112.0642929,
              -7.834773
            ],
            [
              112.0639724,
              -7.8345017
            ],
            [
              112.0635299,
              -7.8341312
            ],
            [
              112.0631179,
              -7.833856
            ],
            [
              112.0627288,
              -7.8337439
            ],
            [
              112.0622787,
              -7.833691
            ],
            [
              112.0621505,
              -7.8337234
            ],
            [
              112.0619272,
              -7.8336758
            ],
            [
              112.0610275,
              -7.8333029
            ],
            [
              112.0608207,
              -7.8331516
            ],
            [
              112.0601501,
              -7.8329114
            ],
            [
              112.0595245,
              -7.8326239
            ],
            [
              112.0587921,
              -7.8323535
            ],
            [
              112.0582428,
              -7.8322004
            ],
            [
              112.0578613,
              -7.8320908
            ],
            [
              112.05764,
              -7.8319821
            ],
            [
              112.0573706,
              -7.8318733
            ],
            [
              112.05705,
              -7.8323943
            ],
            [
              112.0567891,
              -7.8323238
            ],
            [
              112.056427,
              -7.8330845
            ],
            [
              112.056282,
              -7.8334335
            ],
            [
              112.0562439,
              -7.8335103
            ],
            [
              112.0560989,
              -7.8337335
            ],
            [
              112.0560455,
              -7.8338589
            ],
            [
              112.0559997,
              -7.8340043
            ],
            [
              112.0559158,
              -7.8342756
            ],
            [
              112.0558405,
              -7.8344188
            ],
            [
              112.0558395,
              -7.8344206
            ],
            [
              112.0547027,
              -7.8338179
            ],
            [
              112.0543441,
              -7.83366
            ],
            [
              112.0541839,
              -7.8336252
            ],
            [
              112.0542859,
              -7.8334785
            ],
            [
              112.0548823,
              -7.8323593
            ],
            [
              112.0553357,
              -7.8325922
            ],
            [
              112.055423,
              -7.8324202
            ],
            [
              112.0556511,
              -7.8319656
            ],
            [
              112.0557401,
              -7.8315619
            ],
            [
              112.0553474,
              -7.8314264
            ],
            [
              112.0546879,
              -7.8311618
            ],
            [
              112.054604,
              -7.8309421
            ],
            [
              112.0540785,
              -7.830652
            ],
            [
              112.0528593,
              -7.8301562
            ],
            [
              112.052113,
              -7.8297218
            ],
            [
              112.0515865,
              -7.8296787
            ],
            [
              112.0497463,
              -7.8300367
            ],
            [
              112.0492903,
              -7.8299641
            ],
            [
              112.0490947,
              -7.8294686
            ],
            [
              112.0486984,
              -7.8292708
            ],
            [
              112.0481275,
              -7.8288046
            ],
            [
              112.047624,
              -7.8283749
            ],
            [
              112.0470843,
              -7.8281549
            ],
            [
              112.0462127,
              -7.8279467
            ],
            [
              112.0451441,
              -7.8275994
            ],
            [
              112.0453033,
              -7.8271021
            ],
            [
              112.0453046,
              -7.8270979
            ],
            [
              112.045494,
              -7.8264856
            ],
            [
              112.0457229,
              -7.8258585
            ],
            [
              112.0457763,
              -7.8253583
            ],
            [
              112.0456924,
              -7.8249921
            ],
            [
              112.0450973,
              -7.8247799
            ],
            [
              112.0439997,
              -7.8244007
            ],
            [
              112.0439987,
              -7.8244003
            ],
            [
              112.0436859,
              -7.824211
            ],
            [
              112.0435943,
              -7.8240499
            ],
            [
              112.0435042,
              -7.8239289
            ],
            [
              112.0433002,
              -7.823846
            ],
            [
              112.0433578,
              -7.8234405
            ],
            [
              112.043251,
              -7.8233175
            ],
            [
              112.0429306,
              -7.8231181
            ],
            [
              112.0423965,
              -7.8228511
            ],
            [
              112.041954,
              -7.8226761
            ],
            [
              112.0426955,
              -7.8204648
            ],
            [
              112.0392169,
              -7.8193095
            ],
            [
              112.0387032,
              -7.8208139
            ],
            [
              112.0381851,
              -7.8203286
            ],
            [
              112.038063,
              -7.8202848
            ],
            [
              112.0376205,
              -7.8202395
            ],
            [
              112.0371322,
              -7.8202104
            ],
            [
              112.0362777,
              -7.8200783
            ],
            [
              112.0360565,
              -7.8200435
            ],
            [
              112.0355394,
              -7.8198533
            ],
            [
              112.0348166,
              -7.819563
            ],
            [
              112.034437,
              -7.8193825
            ],
            [
              112.0340335,
              -7.8191822
            ],
            [
              112.0335445,
              -7.8189858
            ],
            [
              112.0331726,
              -7.8188261
            ],
            [
              112.0331727,
              -7.8188256
            ],
            [
              112.0332031,
              -7.8187184
            ],
            [
              112.0332412,
              -7.818675
            ],
            [
              112.0335083,
              -7.8182868
            ],
            [
              112.0337312,
              -7.8178837
            ],
            [
              112.0340576,
              -7.8171748
            ],
            [
              112.0341949,
              -7.8169235
            ],
            [
              112.0344467,
              -7.8163818
            ],
            [
              112.0345828,
              -7.816084
            ],
            [
              112.0347849,
              -7.8156166
            ],
            [
              112.0350185,
              -7.8149578
            ],
            [
              112.0354535,
              -7.8137965
            ],
            [
              112.0356571,
              -7.813222
            ],
            [
              112.035797,
              -7.8128564
            ],
            [
              112.0361926,
              -7.8119412
            ],
            [
              112.0370013,
              -7.8122394
            ],
            [
              112.0376147,
              -7.8107712
            ],
            [
              112.0377146,
              -7.8105144
            ],
            [
              112.037567,
              -7.8103331
            ],
            [
              112.037329,
              -7.8103987
            ],
            [
              112.0370478,
              -7.810382
            ],
            [
              112.036795,
              -7.8103916
            ],
            [
              112.0366268,
              -7.8103405
            ],
            [
              112.0364572,
              -7.8104902
            ],
            [
              112.0341963,
              -7.8096735
            ],
            [
              112.0328218,
              -7.8091809
            ],
            [
              112.0327973,
              -7.8091748
            ],
            [
              112.0308322,
              -7.8086819
            ],
            [
              112.0303405,
              -7.8099104
            ],
            [
              112.0293411,
              -7.8096373
            ],
            [
              112.0297832,
              -7.8081756
            ],
            [
              112.030493,
              -7.8061442
            ],
            [
              112.0305481,
              -7.8059987
            ],
            [
              112.0315167,
              -7.802789
            ],
            [
              112.031517,
              -7.8027882
            ],
            [
              112.0318105,
              -7.801465
            ],
            [
              112.0315166,
              -7.801266
            ],
            [
              112.0311806,
              -7.8010117
            ],
            [
              112.0310315,
              -7.8007271
            ],
            [
              112.0312283,
              -7.8004765
            ],
            [
              112.0311984,
              -7.8002612
            ],
            [
              112.0305072,
              -7.7997677
            ],
            [
              112.0304235,
              -7.7996597
            ],
            [
              112.0302912,
              -7.7995934
            ],
            [
              112.0296383,
              -7.7993809
            ],
            [
              112.0291664,
              -7.79922
            ],
            [
              112.0284912,
              -7.7990001
            ],
            [
              112.0284191,
              -7.7989735
            ],
            [
              112.0282594,
              -7.7995817
            ],
            [
              112.0276192,
              -7.7993415
            ],
            [
              112.0269708,
              -7.7990982
            ],
            [
              112.0263314,
              -7.7989429
            ],
            [
              112.0258813,
              -7.8000424
            ],
            [
              112.0254757,
              -7.7999114
            ],
            [
              112.0251373,
              -7.7998615
            ],
            [
              112.0247584,
              -7.8009268
            ],
            [
              112.0213328,
              -7.7997794
            ],
            [
              112.0212841,
              -7.7999245
            ],
            [
              112.0208409,
              -7.7998519
            ],
            [
              112.020784,
              -7.8000533
            ],
            [
              112.0201823,
              -7.7999486
            ],
            [
              112.0201276,
              -7.8001635
            ],
            [
              112.0192542,
              -7.799852
            ],
            [
              112.0194401,
              -7.7990782
            ],
            [
              112.0185571,
              -7.7987597
            ],
            [
              112.018404,
              -7.7992249
            ],
            [
              112.0181831,
              -7.799092
            ],
            [
              112.0174088,
              -7.7985445
            ],
            [
              112.0178368,
              -7.7969654
            ],
            [
              112.0178455,
              -7.7967515
            ],
            [
              112.0177807,
              -7.7966359
            ],
            [
              112.0161352,
              -7.7957716
            ],
            [
              112.016083,
              -7.7957292
            ],
            [
              112.0160401,
              -7.7956945
            ],
            [
              112.0160142,
              -7.7955876
            ],
            [
              112.0160574,
              -7.795104
            ],
            [
              112.016092,
              -7.7934823
            ],
            [
              112.0160574,
              -7.792297
            ],
            [
              112.0159151,
              -7.7910884
            ],
            [
              112.0135111,
              -7.7907814
            ],
            [
              112.0135726,
              -7.7904657
            ],
            [
              112.0136261,
              -7.7901963
            ],
            [
              112.0133667,
              -7.7901568
            ],
            [
              112.012474,
              -7.7900323
            ],
            [
              112.0113067,
              -7.7898444
            ],
            [
              112.0104904,
              -7.7897161
            ],
            [
              112.010437,
              -7.7902383
            ],
            [
              112.010437,
              -7.7902984
            ],
            [
              112.009552,
              -7.7901916
            ],
            [
              112.0092773,
              -7.7901501
            ],
            [
              112.0080337,
              -7.7899636
            ],
            [
              112.0075988,
              -7.7899346
            ],
            [
              112.0057067,
              -7.7897491
            ],
            [
              112.0046081,
              -7.7896375
            ],
            [
              112.0030519,
              -7.789488
            ],
            [
              112.0020745,
              -7.7878421
            ],
            [
              112.0020123,
              -7.7875348
            ],
            [
              112.0016814,
              -7.785901
            ],
            [
              112.0019245,
              -7.7850567
            ],
            [
              112.0024913,
              -7.7842485
            ],
            [
              112.0025456,
              -7.7842018
            ],
            [
              112.0040709,
              -7.7828901
            ],
            [
              112.0056697,
              -7.7820951
            ],
            [
              112.0077565,
              -7.7815799
            ],
            [
              112.0077446,
              -7.7811465
            ],
            [
              112.0077476,
              -7.7805834
            ],
            [
              112.0077343,
              -7.7802995
            ],
            [
              112.0078565,
              -7.7801195
            ],
            [
              112.007962,
              -7.7798189
            ],
            [
              112.0078277,
              -7.7795462
            ],
            [
              112.008107,
              -7.7788271
            ],
            [
              112.0085471,
              -7.7778219
            ],
            [
              112.0089909,
              -7.7766516
            ],
            [
              112.0094406,
              -7.7755847
            ],
            [
              112.0098468,
              -7.7744974
            ],
            [
              112.0094637,
              -7.7743108
            ],
            [
              112.0102003,
              -7.7721883
            ],
            [
              112.0100077,
              -7.7721076
            ],
            [
              112.009751,
              -7.7720076
            ],
            [
              112.0094774,
              -7.771896
            ],
            [
              112.0089138,
              -7.7716281
            ],
            [
              112.0084912,
              -7.7714809
            ],
            [
              112.0085092,
              -7.7719097
            ],
            [
              112.0079901,
              -7.7718632
            ],
            [
              112.0079075,
              -7.7722215
            ],
            [
              112.0077173,
              -7.7731783
            ],
            [
              112.007203,
              -7.7731344
            ],
            [
              112.00666,
              -7.7730452
            ],
            [
              112.0061018,
              -7.7729368
            ],
            [
              112.0060339,
              -7.7729949
            ],
            [
              112.0058543,
              -7.7731157
            ],
            [
              112.0054411,
              -7.7731603
            ],
            [
              112.0049273,
              -7.7731744
            ],
            [
              112.0041972,
              -7.773075
            ],
            [
              112.0039483,
              -7.7729362
            ],
            [
              112.0036655,
              -7.7728403
            ],
            [
              112.0024188,
              -7.7726395
            ],
            [
              112.0014311,
              -7.7724259
            ],
            [
              112.0014082,
              -7.7723302
            ],
            [
              112.001353,
              -7.772237
            ],
            [
              112.0013807,
              -7.7720631
            ],
            [
              112.0010966,
              -7.7719633
            ],
            [
              112.0000903,
              -7.7717072
            ],
            [
              111.9998688,
              -7.7717667
            ],
            [
              111.9996261,
              -7.7717504
            ],
            [
              111.9986259,
              -7.7714174
            ],
            [
              111.9983546,
              -7.7721891
            ],
            [
              111.9979854,
              -7.773352
            ],
            [
              111.9975232,
              -7.7736189
            ],
            [
              111.9974876,
              -7.7740919
            ],
            [
              111.9974673,
              -7.7742833
            ],
            [
              111.9973017,
              -7.7754446
            ],
            [
              111.9970604,
              -7.7759722
            ],
            [
              111.9960712,
              -7.7757641
            ],
            [
              111.9957885,
              -7.7760511
            ],
            [
              111.9952979,
              -7.7759673
            ],
            [
              111.9950978,
              -7.7766835
            ],
            [
              111.9949944,
              -7.7769619
            ],
            [
              111.9944893,
              -7.7768688
            ],
            [
              111.9943657,
              -7.7773355
            ],
            [
              111.9944566,
              -7.777469
            ],
            [
              111.9943456,
              -7.7777553
            ],
            [
              111.9934928,
              -7.7773612
            ],
            [
              111.9924646,
              -7.7768406
            ],
            [
              111.9923508,
              -7.7770466
            ],
            [
              111.9921615,
              -7.7777428
            ],
            [
              111.9921092,
              -7.7780625
            ],
            [
              111.992087,
              -7.7783308
            ],
            [
              111.9920323,
              -7.7785468
            ],
            [
              111.9916692,
              -7.7799698
            ],
            [
              111.9916687,
              -7.779972
            ],
            [
              111.9918661,
              -7.7800433
            ],
            [
              111.9920924,
              -7.7800795
            ],
            [
              111.99236,
              -7.780197
            ],
            [
              111.9929116,
              -7.7803869
            ],
            [
              111.9925336,
              -7.7818037
            ],
            [
              111.9931608,
              -7.7820494
            ],
            [
              111.9931035,
              -7.782341
            ],
            [
              111.9932043,
              -7.7823798
            ],
            [
              111.9926416,
              -7.7840408
            ],
            [
              111.992401,
              -7.7839721
            ],
            [
              111.9919568,
              -7.7837261
            ],
            [
              111.9916703,
              -7.7836737
            ],
            [
              111.9912421,
              -7.7837315
            ],
            [
              111.9910913,
              -7.7835869
            ],
            [
              111.9908747,
              -7.7834883
            ],
            [
              111.9905989,
              -7.7834404
            ],
            [
              111.9902812,
              -7.7835367
            ],
            [
              111.9899536,
              -7.7834041
            ],
            [
              111.9896674,
              -7.7831482
            ],
            [
              111.9895713,
              -7.783112
            ],
            [
              111.9893696,
              -7.7830506
            ],
            [
              111.9892802,
              -7.7832861
            ],
            [
              111.9892589,
              -7.7833706
            ],
            [
              111.9891179,
              -7.7833927
            ],
            [
              111.9890377,
              -7.783356
            ],
            [
              111.9889471,
              -7.7832903
            ],
            [
              111.9888112,
              -7.7831949
            ],
            [
              111.988657,
              -7.7830493
            ],
            [
              111.9885123,
              -7.7829592
            ],
            [
              111.9882457,
              -7.7828796
            ],
            [
              111.9878072,
              -7.7827359
            ],
            [
              111.9873952,
              -7.7825792
            ],
            [
              111.9869387,
              -7.7824035
            ],
            [
              111.9865871,
              -7.7823196
            ],
            [
              111.9863256,
              -7.7822652
            ],
            [
              111.9858437,
              -7.7820216
            ],
            [
              111.9854925,
              -7.7821926
            ],
            [
              111.9853525,
              -7.782394
            ],
            [
              111.985291,
              -7.7825944
            ],
            [
              111.985138,
              -7.7824945
            ],
            [
              111.9849002,
              -7.78244
            ],
            [
              111.9846479,
              -7.7824418
            ],
            [
              111.9846238,
              -7.7825971
            ],
            [
              111.9837244,
              -7.7823391
            ],
            [
              111.9837116,
              -7.782179
            ],
            [
              111.9835328,
              -7.7821685
            ],
            [
              111.9832061,
              -7.7821507
            ],
            [
              111.9830695,
              -7.7827102
            ],
            [
              111.9829192,
              -7.7827018
            ],
            [
              111.9828468,
              -7.7831063
            ],
            [
              111.9828459,
              -7.7832803
            ],
            [
              111.9829348,
              -7.7834863
            ],
            [
              111.9832117,
              -7.7836164
            ],
            [
              111.9830749,
              -7.7844494
            ],
            [
              111.9828335,
              -7.7844539
            ],
            [
              111.9825619,
              -7.7860014
            ],
            [
              111.9826584,
              -7.7860136
            ],
            [
              111.9826243,
              -7.7862636
            ],
            [
              111.9825298,
              -7.7862501
            ],
            [
              111.9823066,
              -7.7872455
            ],
            [
              111.9821356,
              -7.788066
            ],
            [
              111.9819946,
              -7.7885975
            ],
            [
              111.9818544,
              -7.7891397
            ],
            [
              111.9818036,
              -7.7891816
            ],
            [
              111.98175,
              -7.7893518
            ],
            [
              111.9814165,
              -7.7892761
            ],
            [
              111.9813248,
              -7.7897174
            ],
            [
              111.9811878,
              -7.7896993
            ],
            [
              111.9809822,
              -7.7898944
            ],
            [
              111.9809301,
              -7.7900822
            ],
            [
              111.9809875,
              -7.790186
            ],
            [
              111.980978,
              -7.7905268
            ],
            [
              111.9808173,
              -7.7906562
            ],
            [
              111.9805002,
              -7.7920588
            ],
            [
              111.9804308,
              -7.7926545
            ],
            [
              111.9815693,
              -7.7928258
            ],
            [
              111.9813704,
              -7.793824
            ],
            [
              111.9803856,
              -7.7935797
            ],
            [
              111.9802779,
              -7.7936017
            ],
            [
              111.9801958,
              -7.7936522
            ],
            [
              111.9801103,
              -7.7936274
            ],
            [
              111.9798435,
              -7.7934499
            ],
            [
              111.9795548,
              -7.7933866
            ],
            [
              111.9793229,
              -7.7934728
            ],
            [
              111.9791121,
              -7.7937065
            ],
            [
              111.9790888,
              -7.7938461
            ],
            [
              111.9784678,
              -7.7936778
            ],
            [
              111.9784409,
              -7.7938026
            ],
            [
              111.978187,
              -7.7937456
            ],
            [
              111.9779484,
              -7.7946408
            ],
            [
              111.9759055,
              -7.7935185
            ],
            [
              111.9758453,
              -7.7934764
            ],
            [
              111.9756567,
              -7.7933604
            ],
            [
              111.974994,
              -7.7930059
            ],
            [
              111.9743517,
              -7.7926958
            ],
            [
              111.9741598,
              -7.7925907
            ],
            [
              111.9740675,
              -7.7943247
            ],
            [
              111.9740012,
              -7.7954441
            ],
            [
              111.9739151,
              -7.7954468
            ],
            [
              111.9737939,
              -7.7954821
            ],
            [
              111.9734982,
              -7.795361
            ],
            [
              111.9732299,
              -7.7953523
            ],
            [
              111.9727913,
              -7.7953521
            ],
            [
              111.9725876,
              -7.7953896
            ],
            [
              111.9724084,
              -7.7953471
            ],
            [
              111.9722919,
              -7.7953456
            ],
            [
              111.9720968,
              -7.795277
            ],
            [
              111.9719324,
              -7.7952904
            ],
            [
              111.9719177,
              -7.7954265
            ],
            [
              111.9718859,
              -7.7955119
            ],
            [
              111.9717636,
              -7.7955147
            ],
            [
              111.9715214,
              -7.7954879
            ],
            [
              111.9713811,
              -7.7954239
            ],
            [
              111.9712262,
              -7.7954152
            ],
            [
              111.9711165,
              -7.7954166
            ],
            [
              111.9710488,
              -7.7955234
            ],
            [
              111.9710002,
              -7.795706
            ],
            [
              111.9708943,
              -7.7957413
            ],
            [
              111.9706115,
              -7.7956151
            ],
            [
              111.9697723,
              -7.7957248
            ],
            [
              111.9693527,
              -7.7957677
            ],
            [
              111.9690628,
              -7.795751
            ],
            [
              111.9686355,
              -7.7956785
            ],
            [
              111.9682693,
              -7.7956618
            ],
            [
              111.9680557,
              -7.7956781
            ],
            [
              111.967514,
              -7.7957195
            ],
            [
              111.9672317,
              -7.7958025
            ],
            [
              111.9671859,
              -7.7958211
            ],
            [
              111.9668664,
              -7.7959056
            ],
            [
              111.9667154,
              -7.795975
            ],
            [
              111.9665069,
              -7.7961212
            ],
            [
              111.9663508,
              -7.7961951
            ],
            [
              111.9662441,
              -7.7963233
            ],
            [
              111.9661941,
              -7.7964949
            ],
            [
              111.9657592,
              -7.7969412
            ],
            [
              111.965332,
              -7.7975301
            ],
            [
              111.9650421,
              -7.7980446
            ],
            [
              111.9647751,
              -7.7986774
            ],
            [
              111.9644546,
              -7.7994918
            ],
            [
              111.9644542,
              -7.7994929
            ],
            [
              111.9642562,
              -7.8000263
            ],
            [
              111.9639816,
              -7.8007149
            ],
            [
              111.9636764,
              -7.8014926
            ],
            [
              111.9633789,
              -7.8022722
            ],
            [
              111.9631195,
              -7.8030042
            ],
            [
              111.9628372,
              -7.8034343
            ],
            [
              111.9623718,
              -7.8038963
            ],
            [
              111.961708,
              -7.8043908
            ],
            [
              111.9608612,
              -7.80479
            ],
            [
              111.9600601,
              -7.8049349
            ],
            [
              111.959259,
              -7.8051018
            ],
            [
              111.9587402,
              -7.8053354
            ],
            [
              111.9576873,
              -7.8057989
            ],
            [
              111.9570541,
              -7.806023
            ],
            [
              111.9566505,
              -7.8062065
            ],
            [
              111.9565277,
              -7.8062624
            ],
            [
              111.9562683,
              -7.8063659
            ],
            [
              111.9562678,
              -7.8063662
            ],
            [
              111.9558181,
              -7.806662
            ],
            [
              111.9552536,
              -7.8071379
            ],
            [
              111.9548034,
              -7.8077292
            ],
            [
              111.9545974,
              -7.8082861
            ],
            [
              111.9545822,
              -7.8088879
            ],
            [
              111.9545029,
              -7.8094261
            ],
            [
              111.9544601,
              -7.8097171
            ],
            [
              111.9544449,
              -7.8105082
            ],
            [
              111.9544448,
              -7.8105103
            ],
            [
              111.9544067,
              -7.8115792
            ],
            [
              111.9544067,
              -7.812406
            ],
            [
              111.9545059,
              -7.8131847
            ],
            [
              111.9546203,
              -7.8137283
            ],
            [
              111.9547424,
              -7.8144082
            ],
            [
              111.9550247,
              -7.815216
            ],
            [
              111.9552688,
              -7.8158154
            ],
            [
              111.9552917,
              -7.8158726
            ],
            [
              111.9553451,
              -7.8160161
            ],
            [
              111.9553604,
              -7.8160714
            ],
            [
              111.9553985,
              -7.8161773
            ],
            [
              111.9554214,
              -7.8162407
            ],
            [
              111.9554596,
              -7.8163456
            ],
            [
              111.9554824,
              -7.8163814
            ],
            [
              111.9554977,
              -7.8164419
            ],
            [
              111.9555206,
              -7.8164849
            ],
            [
              111.9556045,
              -7.8166317
            ],
            [
              111.9556427,
              -7.8167266
            ],
            [
              111.9558334,
              -7.8170489
            ],
            [
              111.9559097,
              -7.8171815
            ],
            [
              111.9559936,
              -7.8172807
            ],
            [
              111.9560623,
              -7.8173794
            ],
            [
              111.9563092,
              -7.8175989
            ],
            [
              111.9565582,
              -7.8178437
            ],
            [
              111.9567284,
              -7.8179824
            ],
            [
              111.9568142,
              -7.8180476
            ],
            [
              111.9570203,
              -7.8182802
            ],
            [
              111.9572576,
              -7.8184592
            ],
            [
              111.9575374,
              -7.8185792
            ],
            [
              111.957756,
              -7.8187241
            ],
            [
              111.9577942,
              -7.818962
            ],
            [
              111.9577334,
              -7.8192662
            ],
            [
              111.9577639,
              -7.8195064
            ],
            [
              111.9576732,
              -7.8196453
            ],
            [
              111.9574917,
              -7.8197068
            ],
            [
              111.9573974,
              -7.8198885
            ],
            [
              111.9573364,
              -7.8199777
            ],
            [
              111.9574131,
              -7.8202217
            ],
            [
              111.9573132,
              -7.8204095
            ],
            [
              111.9571507,
              -7.8205049
            ],
            [
              111.9572163,
              -7.8207327
            ],
            [
              111.9573375,
              -7.8208517
            ],
            [
              111.9575318,
              -7.8208411
            ],
            [
              111.957695,
              -7.8209194
            ],
            [
              111.9576976,
              -7.821245
            ],
            [
              111.9576712,
              -7.8213932
            ],
            [
              111.9576875,
              -7.8215488
            ],
            [
              111.9577632,
              -7.8216647
            ],
            [
              111.9578658,
              -7.8216915
            ],
            [
              111.957962,
              -7.8220538
            ],
            [
              111.958023,
              -7.8224954
            ],
            [
              111.9580307,
              -7.8225235
            ],
            [
              111.9580917,
              -7.8228616
            ],
            [
              111.9586258,
              -7.8230102
            ],
            [
              111.9591598,
              -7.8231587
            ],
            [
              111.9596252,
              -7.8232226
            ],
            [
              111.9601135,
              -7.8232197
            ],
            [
              111.960823,
              -7.8231958
            ],
            [
              111.9611282,
              -7.8232822
            ],
            [
              111.9617386,
              -7.8235015
            ],
            [
              111.9619598,
              -7.8234967
            ],
            [
              111.9624481,
              -7.823408
            ],
            [
              111.9628143,
              -7.8233499
            ],
            [
              111.963005,
              -7.823378
            ],
            [
              111.9638214,
              -7.823923
            ],
            [
              111.9641571,
              -7.8240341
            ],
            [
              111.9645386,
              -7.8240995
            ],
            [
              111.9650802,
              -7.8241367
            ],
            [
              111.9653965,
              -7.8240749
            ],
            [
              111.9656719,
              -7.8239294
            ],
            [
              111.9658578,
              -7.8237662
            ],
            [
              111.9659872,
              -7.8237914
            ],
            [
              111.9662537,
              -7.8236899
            ],
            [
              111.9664775,
              -7.8234907
            ],
            [
              111.9666257,
              -7.8232999
            ],
            [
              111.9668486,
              -7.8232498
            ],
            [
              111.9671457,
              -7.8232896
            ],
            [
              111.9671763,
              -7.8234414
            ],
            [
              111.9672426,
              -7.8236396
            ],
            [
              111.9672437,
              -7.8237165
            ],
            [
              111.967257,
              -7.8238807
            ],
            [
              111.9674071,
              -7.8248322
            ],
            [
              111.9678167,
              -7.8246872
            ],
            [
              111.968358,
              -7.8244941
            ],
            [
              111.9690645,
              -7.8242714
            ],
            [
              111.9699249,
              -7.824119
            ],
            [
              111.9706754,
              -7.8240929
            ],
            [
              111.9715576,
              -7.8242268
            ],
            [
              111.9717524,
              -7.8241788
            ],
            [
              111.9717314,
              -7.824034
            ],
            [
              111.9719757,
              -7.8236317
            ],
            [
              111.9721098,
              -7.8234193
            ],
            [
              111.9722425,
              -7.8233369
            ],
            [
              111.972419,
              -7.8232674
            ],
            [
              111.9725761,
              -7.8232329
            ],
            [
              111.9726591,
              -7.8230405
            ],
            [
              111.9728184,
              -7.8230906
            ],
            [
              111.9730149,
              -7.8230985
            ],
            [
              111.9730884,
              -7.8234222
            ],
            [
              111.9732476,
              -7.8237887
            ],
            [
              111.9732684,
              -7.8240286
            ],
            [
              111.9731009,
              -7.8240381
            ],
            [
              111.9731256,
              -7.8241572
            ],
            [
              111.9730999,
              -7.8243427
            ],
            [
              111.9728908,
              -7.8248899
            ],
            [
              111.9729707,
              -7.8251276
            ],
            [
              111.9731857,
              -7.8251253
            ],
            [
              111.9733309,
              -7.8253057
            ],
            [
              111.9734593,
              -7.8254716
            ],
            [
              111.9736898,
              -7.8253119
            ],
            [
              111.9740833,
              -7.8252562
            ],
            [
              111.9744307,
              -7.8253138
            ],
            [
              111.9746392,
              -7.8255547
            ],
            [
              111.9749484,
              -7.8256879
            ],
            [
              111.9752192,
              -7.8260001
            ],
            [
              111.975371,
              -7.8262619
            ],
            [
              111.9754629,
              -7.8271305
            ],
            [
              111.9755428,
              -7.8277962
            ],
            [
              111.9760129,
              -7.8276773
            ],
            [
              111.9764035,
              -7.8274422
            ],
            [
              111.9764791,
              -7.8275349
            ],
            [
              111.9765195,
              -7.8277296
            ],
            [
              111.976432,
              -7.8279858
            ],
            [
              111.9764363,
              -7.828372
            ],
            [
              111.9764648,
              -7.8284475
            ],
            [
              111.9766569,
              -7.8285882
            ],
            [
              111.9768726,
              -7.8286479
            ],
            [
              111.9771386,
              -7.8286678
            ],
            [
              111.9773748,
              -7.8286061
            ],
            [
              111.9775877,
              -7.8285767
            ],
            [
              111.9780065,
              -7.8283672
            ],
            [
              111.9779602,
              -7.8281378
            ],
            [
              111.9779918,
              -7.827926
            ],
            [
              111.9779625,
              -7.8276869
            ],
            [
              111.9779644,
              -7.8273923
            ],
            [
              111.9778139,
              -7.8272296
            ],
            [
              111.9778041,
              -7.8270882
            ],
            [
              111.9785686,
              -7.8269251
            ],
            [
              111.9790263,
              -7.8269571
            ],
            [
              111.9795709,
              -7.827108
            ],
            [
              111.9796147,
              -7.8275264
            ],
            [
              111.9796533,
              -7.8276955
            ],
            [
              111.9798336,
              -7.827801
            ],
            [
              111.9800451,
              -7.8278017
            ],
            [
              111.9808984,
              -7.8274187
            ],
            [
              111.9817734,
              -7.8272323
            ],
            [
              111.9820102,
              -7.8270513
            ],
            [
              111.9823161,
              -7.8270339
            ],
            [
              111.9825043,
              -7.8270025
            ],
            [
              111.9826977,
              -7.8269759
            ],
            [
              111.9829384,
              -7.8268566
            ],
            [
              111.9831328,
              -7.8267365
            ],
            [
              111.9831863,
              -7.8264986
            ],
            [
              111.9834497,
              -7.8263636
            ],
            [
              111.9839183,
              -7.8262856
            ],
            [
              111.9836871,
              -7.827016
            ],
            [
              111.9835771,
              -7.8273636
            ],
            [
              111.9835579,
              -7.8279799
            ],
            [
              111.9839172,
              -7.8279233
            ],
            [
              111.9837909,
              -7.8284454
            ],
            [
              111.9835268,
              -7.829256
            ],
            [
              111.9831789,
              -7.8293932
            ],
            [
              111.9829197,
              -7.8306818
            ],
            [
              111.9828467,
              -7.8316643
            ],
            [
              111.9828679,
              -7.8319463
            ],
            [
              111.9827673,
              -7.8326186
            ],
            [
              111.9829301,
              -7.8324905
            ],
            [
              111.9831544,
              -7.8324112
            ],
            [
              111.9835271,
              -7.8324975
            ],
            [
              111.9840633,
              -7.8327422
            ],
            [
              111.9844762,
              -7.8329148
            ],
            [
              111.9846115,
              -7.8329758
            ],
            [
              111.9845755,
              -7.8331424
            ],
            [
              111.9843642,
              -7.8337801
            ],
            [
              111.9840013,
              -7.8347788
            ],
            [
              111.9842019,
              -7.8348489
            ],
            [
              111.9841087,
              -7.8351881
            ],
            [
              111.9838475,
              -7.8360762
            ],
            [
              111.9836843,
              -7.8367329
            ],
            [
              111.9835138,
              -7.8373903
            ],
            [
              111.983766,
              -7.8376879
            ],
            [
              111.9839966,
              -7.8379005
            ],
            [
              111.9842756,
              -7.838044
            ],
            [
              111.9848254,
              -7.8382539
            ],
            [
              111.9851446,
              -7.8383868
            ],
            [
              111.9858286,
              -7.8386631
            ],
            [
              111.9863999,
              -7.8389474
            ],
            [
              111.9866869,
              -7.8393832
            ],
            [
              111.9868898,
              -7.8395273
            ],
            [
              111.9873092,
              -7.8396675
            ],
            [
              111.9877169,
              -7.8394709
            ],
            [
              111.9878778,
              -7.8392982
            ],
            [
              111.9881005,
              -7.8391618
            ],
            [
              111.9883541,
              -7.839117
            ],
            [
              111.9887361,
              -7.8392052
            ],
            [
              111.9888981,
              -7.8391098
            ],
            [
              111.9890943,
              -7.8390883
            ],
            [
              111.989305,
              -7.839188
            ],
            [
              111.9893569,
              -7.8393721
            ],
            [
              111.9897097,
              -7.8394868
            ],
            [
              111.9900197,
              -7.8393525
            ],
            [
              111.9901946,
              -7.8390721
            ],
            [
              111.990382,
              -7.8389483
            ],
            [
              111.9905673,
              -7.8389197
            ],
            [
              111.9906663,
              -7.8389763
            ],
            [
              111.9908076,
              -7.8391276
            ],
            [
              111.9909809,
              -7.8392127
            ],
            [
              111.9913422,
              -7.8391931
            ],
            [
              111.9915265,
              -7.8392623
            ],
            [
              111.9917307,
              -7.8392828
            ],
            [
              111.9918491,
              -7.8392215
            ],
            [
              111.9918889,
              -7.8389029
            ],
            [
              111.9919816,
              -7.8387614
            ],
            [
              111.9921425,
              -7.8387481
            ],
            [
              111.9924255,
              -7.8386999
            ],
            [
              111.9925734,
              -7.838601
            ],
            [
              111.9926881,
              -7.8384282
            ],
            [
              111.9928613,
              -7.8383682
            ],
            [
              111.9929693,
              -7.8383441
            ],
            [
              111.9932655,
              -7.8383785
            ],
            [
              111.9934843,
              -7.8384536
            ],
            [
              111.9937035,
              -7.8385531
            ],
            [
              111.9938597,
              -7.838694
            ],
            [
              111.9944478,
              -7.8389798
            ],
            [
              111.9953745,
              -7.8395064
            ],
            [
              111.9957837,
              -7.8386393
            ],
            [
              111.9961101,
              -7.8387408
            ],
            [
              111.9962738,
              -7.8388607
            ],
            [
              111.996395,
              -7.8389354
            ],
            [
              111.9965644,
              -7.8389777
            ],
            [
              111.9967211,
              -7.8390802
            ],
            [
              111.9968569,
              -7.8391733
            ],
            [
              111.9972249,
              -7.8392779
            ],
            [
              111.9979179,
              -7.8374892
            ],
            [
              111.9980662,
              -7.8375203
            ],
            [
              111.9990446,
              -7.8380262
            ],
            [
              111.999522,
              -7.8381853
            ],
            [
              112.0001342,
              -7.8384352
            ],
            [
              112.0006478,
              -7.8385985
            ],
            [
              112.0013817,
              -7.8388283
            ],
            [
              112.002182,
              -7.8390469
            ],
            [
              112.0025558,
              -7.8390559
            ],
            [
              112.0027389,
              -7.8390025
            ],
            [
              112.002922,
              -7.8389048
            ],
            [
              112.0036926,
              -7.8391341
            ],
            [
              112.0038605,
              -7.8391837
            ],
            [
              112.0052795,
              -7.8394374
            ],
            [
              112.0062713,
              -7.839621
            ],
            [
              112.0071258,
              -7.8398051
            ],
            [
              112.0081969,
              -7.8401203
            ],
            [
              112.0080179,
              -7.840905
            ],
            [
              112.0076003,
              -7.8418392
            ],
            [
              112.0070117,
              -7.8430753
            ],
            [
              112.0063983,
              -7.8437638
            ],
            [
              112.0060728,
              -7.844085
            ],
            [
              112.0026934,
              -7.8465108
            ],
            [
              112.0016434,
              -7.8472645
            ],
            [
              112.0008703,
              -7.8480394
            ],
            [
              112.0001398,
              -7.8490717
            ],
            [
              111.9993298,
              -7.8499513
            ],
            [
              111.9979949,
              -7.8509185
            ],
            [
              111.9981528,
              -7.8513792
            ],
            [
              111.9984358,
              -7.851941
            ],
            [
              111.9987179,
              -7.8521868
            ],
            [
              111.99967,
              -7.8527134
            ],
            [
              112.000886,
              -7.8532341
            ],
            [
              112.0016445,
              -7.8535355
            ],
            [
              112.0030593,
              -7.8541416
            ],
            [
              112.0039842,
              -7.8545108
            ],
            [
              112.0046197,
              -7.8547669
            ],
            [
              112.0064995,
              -7.8554195
            ],
            [
              112.0074523,
              -7.8558247
            ],
            [
              112.0075981,
              -7.8558888
            ],
            [
              112.0075547,
              -7.8561168
            ],
            [
              112.0081686,
              -7.8562595
            ],
            [
              112.0089319,
              -7.8562186
            ],
            [
              112.0094006,
              -7.8562737
            ],
            [
              112.010223,
              -7.8567492
            ],
            [
              112.0103378,
              -7.8561038
            ],
            [
              112.0103389,
              -7.8561035
            ],
            [
              112.0119028,
              -7.8567544
            ],
            [
              112.0126994,
              -7.8546754
            ],
            [
              112.0135513,
              -7.8550022
            ],
            [
              112.0147778,
              -7.8554823
            ]
          ]
        ]
      },
      "id": "relation/9676375"
    },
    {
      "type": "Feature",
      "properties": {
        "@id": "node/558877091",
        "@relations": [
          {
            "role": "label",
            "rel": 9676375,
            "reltags": {
              "admin_level": "5",
              "boundary": "administrative",
              "name": "Kota Kediri",
              "name:ar": "كيديري",
              "name:en": "Kediri City",
              "official_name": "Kota Kediri",
              "type": "boundary",
              "wikidata": "Q11443",
              "wikipedia": "id:Kota Kediri"
            }
          }
        ]
      },
      "geometry": {
        "type": "Point",
        "coordinates": [
          112.0046051,
          -7.8111057
        ]
      },
      "id": "node/558877091"
    }
  ]
}